0 JCSAT 8
1 27399U 02015A   13283.65284145 -.00000183  00000-0  00000+0 0   724
2 27399 000.0126 239.6487 0002038 286.6972 242.0996 01.00272755 42314
0 JCSAT 8
1 27399U 02015A   13286.79593205 -.00000190  00000-0  00000+0 0   731
2 27399 000.0066 239.6065 0002038 286.8036 296.6505 01.00272131 42344
0 JCSAT 8
1 27399U 02015A   13289.66708837 -.00000188  00000-0  00000+0 0   747
2 27399 000.0081 269.9674 0002037 278.5801 230.9575 01.00271899 42371
0 JCSAT 8
1 27399U 02015A   13289.95585531  .00000000  00000-0  10000-3 0   773
2 27399 000.0215 095.2191 0003105 054.1241 014.3835 01.00266247 42382
0 JCSAT 8
1 27399U 02015A   13289.99430536  .00000000  00000-0  10000-3 0   759
2 27399 000.0169 107.9705 0005218 035.3800 034.2907 01.00266819 42387
0 JCSAT 8
1 27399U 02015A   13290.10785251  .00000000  00000-0  10000-3 0   795
2 27399 000.0053 224.2942 0002031 319.4780 034.8177 01.00266170 41090
0 JCSAT 8
1 27399U 02015A   13290.97042578  .00000000  00000-0  10000-3 0   800
2 27399 000.0208 096.2693 0004293 054.7831 018.9372 01.00266454 42388
0 JCSAT 8
1 27399U 02015A   13292.74344238 -.00000182  00000-0  00000+0 0   813
2 27399 000.0190 219.0185 0002037 339.3336 251.6737 01.00271710 42400
0 JCSAT 8
1 27399U 02015A   13295.62427003 -.00000178  00000-0  00000+0 0   821
2 27399 000.0124 164.5354 0002049 043.4530 201.9760 01.00271731 42431
